{
  "type": "FeatureCollection",
  "features": [
    {
      "type": "Feature",
      "properties": {
        "norad_id": 43564,
        "name": "GSAT0221 (GALILEO 25)",
        "group": "galileo",
        "lat": 57.19971836484603,
        "lon": 78.33419351802937,
        "alt_km": 23234.948023455552,
        "timestamp": "2025-12-07T09:35:10.053637+00:00",
        "meta_object_name": "GSAT0221 (GALILEO 25)",
        "meta_object_id": "2018-060A",
        "meta_epoch": "2025-12-04T07:38:46.646016",
        "meta_mean_motion": 1.70475653,
        "meta_eccentricity": 0.00066579,
        "meta_inclination": 57.2296,
        "meta_ra_of_asc_node": 347.0453,
        "meta_arg_of_pericenter": 280.7305,
        "meta_mean_anomaly": 79.2265,
        "meta_ephemeris_type": 0,
        "meta_classification_type": "U",
        "meta_norad_cat_id": 43564,
        "meta_element_set_no": 999,
        "meta_rev_at_epoch": 4584,
        "meta_bstar": 0,
        "meta_mean_motion_dot": -7.1e-07,
        "meta_mean_motion_ddot": 0,
        "tle_line1": "1 43564U 18060A   25338.31859544 -.00000071  00000+0  00000+0 0  9994",
        "tle_line2": "2 43564  57.2296 347.0453 0006657 280.7305  79.2265  1.70475653 45840"
      },
      "geometry": {
        "type": "Point",
        "coordinates": [
          78.33419351802937,
          57.19971836484603
        ]
      }
    },
    {
      "type": "Feature",
      "properties": {
        "norad_id": 43565,
        "name": "GSAT0222 (GALILEO 26)",
        "group": "galileo",
        "lat": -35.60475051954261,
        "lon": -40.505231493268795,
        "alt_km": 23215.845066148104,
        "timestamp": "2025-12-07T09:35:10.053648+00:00",
        "meta_object_name": "GSAT0222 (GALILEO 26)",
        "meta_object_id": "2018-060B",
        "meta_epoch": "2025-12-05T17:03:57.438144",
        "meta_mean_motion": 1.70475397,
        "meta_eccentricity": 0.00061787,
        "meta_inclination": 57.2328,
        "meta_ra_of_asc_node": 347.0105,
        "meta_arg_of_pericenter": 261.4004,
        "meta_mean_anomaly": 98.5552,
        "meta_ephemeris_type": 0,
        "meta_classification_type": "U",
        "meta_norad_cat_id": 43565,
        "meta_element_set_no": 999,
        "meta_rev_at_epoch": 4591,
        "meta_bstar": 0,
        "meta_mean_motion_dot": -7.7e-07,
        "meta_mean_motion_ddot": 0,
        "tle_line1": "1 43565U 18060B   25339.71108146 -.00000077  00000+0  00000+0 0  9991",
        "tle_line2": "2 43565  57.2328 347.0105 0006178 261.4004  98.5552  1.70475397 45917"
      },
      "geometry": {
        "type": "Point",
        "coordinates": [
          -40.505231493268795,
          -35.60475051954261
        ]
      }
    },
    {
      "type": "Feature",
      "properties": {
        "norad_id": 43566,
        "name": "GSAT0219 (GALILEO 23)",
        "group": "galileo",
        "lat": -0.3110994973808092,
        "lon": 167.1661659649505,
        "alt_km": 23226.774570663143,
        "timestamp": "2025-12-07T09:35:10.053659+00:00",
        "meta_object_name": "GSAT0219 (GALILEO 23)",
        "meta_object_id": "2018-060C",
        "meta_epoch": "2025-12-05T22:22:25.031424",
        "meta_mean_motion": 1.70475627,
        "meta_eccentricity": 0.00057672,
        "meta_inclination": 57.232,
        "meta_ra_of_asc_node": 347.0061,
        "meta_arg_of_pericenter": 285.4394,
        "meta_mean_anomaly": 74.5216,
        "meta_ephemeris_type": 0,
        "meta_classification_type": "U",
        "meta_norad_cat_id": 43566,
        "meta_element_set_no": 999,
        "meta_rev_at_epoch": 4589,
        "meta_bstar": 0,
        "meta_mean_motion_dot": -7.8e-07,
        "meta_mean_motion_ddot": 0,
        "tle_line1": "1 43566U 18060C   25339.93223416 -.00000078  00000+0  00000+0 0  9995",
        "tle_line2": "2 43566  57.2320 347.0061 0005767 285.4394  74.5216  1.70475627 45896"
      },
      "geometry": {
        "type": "Point",
        "coordinates": [
          167.1661659649505,
          -0.3110994973808092
        ]
      }
    },
    {
      "type": "Feature",
      "properties": {
        "norad_id": 43567,
        "name": "GSAT0220 (GALILEO 24)",
        "group": "galileo",
        "lat": 36.36792133521324,
        "lon": 15.286571977692656,
        "alt_km": 23227.636949274405,
        "timestamp": "2025-12-07T09:35:10.053670+00:00",
        "meta_object_name": "GSAT0220 (GALILEO 24)",
        "meta_object_id": "2018-060D",
        "meta_epoch": "2025-12-04T23:31:11.369280",
        "meta_mean_motion": 1.70475333,
        "meta_eccentricity": 0.00061638,
        "meta_inclination": 57.2318,
        "meta_ra_of_asc_node": 347.0321,
        "meta_arg_of_pericenter": 281.7737,
        "meta_mean_anomaly": 78.1861,
        "meta_ephemeris_type": 0,
        "meta_classification_type": "U",
        "meta_norad_cat_id": 43567,
        "meta_element_set_no": 999,
        "meta_rev_at_epoch": 4586,
        "meta_bstar": 0,
        "meta_mean_motion_dot": -7.4e-07,
        "meta_mean_motion_ddot": 0,
        "tle_line1": "1 43567U 18060D   25338.97999270 -.00000074  00000+0  00000+0 0  9993",
        "tle_line2": "2 43567  57.2318 347.0321 0006163 281.7737  78.1861  1.70475333 45861"
      },
      "geometry": {
        "type": "Point",
        "coordinates": [
          15.286571977692656,
          36.36792133521324
        ]
      }
    },
    {
      "type": "Feature",
      "properties": {
        "norad_id": 49809,
        "name": "GSAT0223 (GALILEO 27)",
        "group": "galileo",
        "lat": 36.072267222861534,
        "lon": 138.8550169329986,
        "alt_km": 23223.599426301287,
        "timestamp": "2025-12-07T09:35:10.053682+00:00",
        "meta_object_name": "GSAT0223 (GALILEO 27)",
        "meta_object_id": "2021-116A",
        "meta_epoch": "2025-12-06T21:09:43.608672",
        "meta_mean_motion": 1.70475531,
        "meta_eccentricity": 0.00047238,
        "meta_inclination": 57.2205,
        "meta_ra_of_asc_node": 346.871,
        "meta_arg_of_pericenter": 250.5355,
        "meta_mean_anomaly": 287.3218,
        "meta_ephemeris_type": 0,
        "meta_classification_type": "U",
        "meta_norad_cat_id": 49809,
        "meta_element_set_no": 999,
        "meta_rev_at_epoch": 2490,
        "meta_bstar": 0,
        "meta_mean_motion_dot": -8.2e-07,
        "meta_mean_motion_ddot": 0,
        "tle_line1": "1 49809U 21116A   25340.88175473 -.00000082  00000+0  00000+0 0  9997",
        "tle_line2": "2 49809  57.2205 346.8710 0004723 250.5355 287.3218  1.70475531 24902"
      },
      "geometry": {
        "type": "Point",
        "coordinates": [
          138.8550169329986,
          36.072267222861534
        ]
      }
    },
    {
      "type": "Feature",
      "properties": {
        "norad_id": 49810,
        "name": "GSAT0224 (GALILEO 28)",
        "group": "galileo",
        "lat": -51.28245529553571,
        "lon": -139.63951543394654,
        "alt_km": 23215.73245343894,
        "timestamp": "2025-12-07T09:35:10.053693+00:00",
        "meta_object_name": "GSAT0224 (GALILEO 28)",
        "meta_object_id": "2021-116B",
        "meta_epoch": "2025-12-04T15:38:46.077216",
        "meta_mean_motion": 1.70475512,
        "meta_eccentricity": 0.00040562,
        "meta_inclination": 57.2223,
        "meta_ra_of_asc_node": 346.9305,
        "meta_arg_of_pericenter": 253.8254,
        "meta_mean_anomaly": 108.1284,
        "meta_ephemeris_type": 0,
        "meta_classification_type": "U",
        "meta_norad_cat_id": 49810,
        "meta_element_set_no": 999,
        "meta_rev_at_epoch": 2489,
        "meta_bstar": 0,
        "meta_mean_motion_dot": -7.3e-07,
        "meta_mean_motion_ddot": 0,
        "tle_line1": "1 49810U 21116B   25338.65192219 -.00000073  00000+0  00000+0 0  9998",
        "tle_line2": "2 49810  57.2223 346.9305 0004056 253.8254 108.1284  1.70475512 24898"
      },
      "geometry": {
        "type": "Point",
        "coordinates": [
          -139.63951543394654,
          -51.28245529553571
        ]
      }
    },
    {
      "type": "Feature",
      "properties": {
        "norad_id": 59598,
        "name": "GSAT0225 (GALILEO 29)",
        "group": "galileo",
        "lat": -45.59917870232511,
        "lon": -27.94293580974165,
        "alt_km": 23225.19822581877,
        "timestamp": "2025-12-07T09:35:10.053704+00:00",
        "meta_object_name": "GSAT0225 (GALILEO 29)",
        "meta_object_id": "2024-079A",
        "meta_epoch": "2025-12-04T01:47:23.955648",
        "meta_mean_motion": 1.70474518,
        "meta_eccentricity": 0.0002,
        "meta_inclination": 54.9978,
        "meta_ra_of_asc_node": 106.5374,
        "meta_arg_of_pericenter": 171.9845,
        "meta_mean_anomaly": 188.0819,
        "meta_ephemeris_type": 0,
        "meta_classification_type": "U",
        "meta_norad_cat_id": 59598,
        "meta_element_set_no": 999,
        "meta_rev_at_epoch": 999,
        "meta_bstar": 0,
        "meta_mean_motion_dot": 1.5e-07,
        "meta_mean_motion_ddot": 0,
        "tle_line1": "1 59598U 24079A   25338.07458282  .00000015  00000+0  00000+0 0  9999",
        "tle_line2": "2 59598  54.9978 106.5374 0002000 171.9845 188.0819  1.70474518  9992"
      },
      "geometry": {
        "type": "Point",
        "coordinates": [
          -27.94293580974165,
          -45.59917870232511
        ]
      }
    }
  ]
}